M2 PATHFINDER           
1 45727U 20037E   26197.10661167  .00000599  00000+0  46975-4 0  9997
2 45727  97.8141  28.6655 0012834  59.7504 300.4991 15.04792666329845
NETSAT-4                
1 46504U 20068U   26197.02313081  .00010507  00000+0  22656-3 0  9994
2 46504  97.8601 207.6014 0004855 190.4966 169.6181 15.44774366320227
NETSAT-3                
1 46505U 20068V   26196.98631040  .00010678  00000+0  23934-3 0  9996
2 46505  97.8652 205.7431 0003928 207.3174 152.7867 15.43625105320123
NETSAT-1                
1 46506U 20068W   26197.27518600  .00006383  00000+0  18908-3 0  9999
2 46506  97.8752 200.0364 0002521 255.4876 104.6086 15.35259318319766
NETSAT-2                
1 46507U 20068X   26197.27942739  .00012963  00000+0  25696-3 0  9997
2 46507  97.8612 207.8856 0002310 203.6006 156.5137 15.47192303320239
GREENCUBE (IO-117)      
1 53109U 22080E   26197.28830747 -.00000003  00000+0  00000+0 0  9996
2 53109  70.1408 288.1261 0009079 283.0875  76.8771  6.42583343 93934
SITRO-AIS 5 (KATYS)     
1 57176U 23091L   26197.17775797  .00005985  00000+0  20799-3 0  9992
2 57176  97.5044 261.3633 0010548   9.0325 351.1103 15.30076618168778
SITRO-AIS 6 (CHIRKIN)   
1 57192U 23091AC  26197.29016542  .00004845  00000+0  18850-3 0  9998
2 57192  97.5052 260.4391 0011057  12.8096 347.3421 15.26448739168726
SITRO-AIS 8 (ANOKHIN)   
1 57193U 23091AD  26197.27355144  .00007664  00000+0  24361-3 0  9997
2 57193  97.5040 263.1700 0009407   4.3317 355.8005 15.32874456168904
SITRO-AIS 7 (FARTUSHNIY)
1 57194U 23091AE  26197.23382567  .00004697  00000+0  18462-3 0  9991
2 57194  97.5048 260.1921 0011036  14.2664 345.8884 15.26121679168708
SITRO-AIS 10 (BURDAEV)  
1 57199U 23091AK  26197.24490423  .00010425  00000+0  26634-3 0  9994
2 57199  97.5067 268.5020 0004761 336.8268  23.2762 15.39651322169234
SITRO-AIS 9 (SHCHUKIN)  
1 57201U 23091AM  26197.28079212  .00010569  00000+0  27456-3 0  9993
2 57201  97.5065 268.2455 0005037 337.1853  22.9167 15.39136217169221
SITRO-AIS 12 (SMIRENNIY)
1 57204U 23091AQ  26197.26586865  .00010245  00000+0  26368-3 0  9993
2 57204  97.5078 268.7157 0004605 329.2677  30.8298 15.39432146169243
SITRO-AIS 11 (SHEFFER)  
1 57208U 23091AU  26197.27107942  .00010716  00000+0  27173-3 0  9991
2 57208  97.5077 268.9861 0004487 328.6089  31.4889 15.39876031169268
SITRO-AIS 25            
1 59066U 24039R   26197.25169502  .00001778  00000+0  14046-3 0  9999
2 59066  95.3891 255.0649 0142863 225.7827 133.1596 14.93646069129065
SITRO-AIS 26            
1 59067U 24039S   26197.25707345  .00001618  00000+0  12868-3 0  9996
2 59067  95.3892 254.9602 0143194 226.3847 132.5429 14.93437892129050
SITRO-AIS 27            
1 59068U 24039T   26197.28610618  .00001298  00000+0  10289-3 0  9995
2 59068  95.3897 255.2655 0142276 224.7889 134.1782 14.93861265129084
SITRO-AIS 28            
1 59071U 24039U   26197.26289940  .00001555  00000+0  12258-3 0  9991
2 59071  95.3895 255.2984 0142164 224.7223 134.2470 14.93896391129082
GRBBETA                 
1 60237U 24128C   26197.22125604  .00001623  00000+0  12145-3 0  9999
2 60237  61.9898 114.3862 0036914 140.8885 219.4888 15.06812120110641
OOV-CUBE (TUBSAT-30)    
1 60240U 24128F   26197.19853054  .00000923  00000+0  83086-4 0  9991
2 60240  61.9938 124.4033 0040980 140.2430 220.1678 15.02875959110472
ROBUSTA-3A (MEDITERRAN*)
1 60243U 24128J   26197.30273769  .00003645  00000+0  22081-3 0  9997
2 60243  61.9865 105.2566 0037973 133.9468 226.4772 15.11995770110827
LASARSAT                
1 62391U 24247Q   26197.09385022  .00020669  00000+0  39100-3 0  9992
2 62391  44.9739  99.5612 0007476 171.6523 188.4493 15.48082110 87798
CROCUBE                 
1 62394U 24247T   26197.11839026  .00024938  00000+0  43576-3 0  9991
2 62394  44.9721  96.2522 0007681 178.5471 181.5444 15.50241694 87834
FORESAIL-1 PRIME        
1 66778U 25276DS  26197.18239001  .00002180  00000+0  10760-3 0  9992
2 66778  97.4192 269.9251 0002808  42.1880 317.9571 15.18942774 34809
KNACKSAT-2              
1 67683U 98067XZ  26197.09018062  .00034521  00000+0  38453-3 0  9991
2 67683  51.6274 148.8130 0007935 330.8548  29.2002 15.62464930 24794
