OBJECT_NAME,OBJECT_ID,EPOCH,MEAN_MOTION,ECCENTRICITY,INCLINATION,RA_OF_ASC_NODE,ARG_OF_PERICENTER,MEAN_ANOMALY,EPHEMERIS_TYPE,CLASSIFICATION_TYPE,NORAD_CAT_ID,ELEMENT_SET_NO,REV_AT_EPOCH,BSTAR,MEAN_MOTION_DOT,MEAN_MOTION_DDOT
M2 PATHFINDER,2020-037E,2026-07-16T02:33:31.248288,15.04792666,.00128349,97.8141,28.6655,59.7504,300.4991,0,U,45727,999,32984,.46974679E-4,.599E-5,0
NETSAT-4,2020-068U,2026-07-16T00:33:18.501984,15.44774366,.00048555,97.8601,207.6014,190.4966,169.6181,0,U,46504,999,32022,.2265618E-3,.10507E-3,0
NETSAT-3,2020-068V,2026-07-15T23:40:17.218560,15.43625105,.00039282,97.8652,205.7431,207.3174,152.7867,0,U,46505,999,32012,.23933825E-3,.10678E-3,0
NETSAT-1,2020-068W,2026-07-16T06:36:16.070400,15.35259318,.00025215,97.8752,200.0364,255.4876,104.6086,0,U,46506,999,31976,.18907806E-3,.6383E-4,0
NETSAT-2,2020-068X,2026-07-16T06:42:22.526496,15.47192303,.00023104,97.8612,207.8856,203.6006,156.5137,0,U,46507,999,32023,.25696277E-3,.12963E-3,0
GREENCUBE (IO-117),2022-080E,2026-07-16T06:55:09.765408,6.42583343,.00090797,70.1408,288.1261,283.0875,76.8771,0,U,53109,999,9393,0,-.3E-7,0
SITRO-AIS 5 (KATYS),2023-091L,2026-07-16T04:15:58.288608,15.30076618,.00105481,97.5044,261.3633,9.0325,351.1103,0,U,57176,999,16877,.20799001E-3,.5985E-4,0
SITRO-AIS 6 (CHIRKIN),2023-091AC,2026-07-16T06:57:50.292288,15.26448739,.00110577,97.5052,260.4391,12.8096,347.3421,0,U,57192,999,16872,.18850226E-3,.4845E-4,0
SITRO-AIS 8 (ANOKHIN),2023-091AD,2026-07-16T06:33:54.844416,15.32874456,.00094079,97.5040,263.1700,4.3317,355.8005,0,U,57193,999,16890,.24360616E-3,.7664E-4,0
SITRO-AIS 7 (FARTUSHNIY),2023-091AE,2026-07-16T05:36:42.537888,15.26121679,.00110366,97.5048,260.1921,14.2664,345.8884,0,U,57194,999,16870,.18462374E-3,.4697E-4,0
SITRO-AIS 10 (BURDAEV),2023-091AK,2026-07-16T05:52:39.725472,15.39651322,.00047611,97.5067,268.5020,336.8268,23.2762,0,U,57199,999,16923,.26633527E-3,.10425E-3,0
SITRO-AIS 9 (SHCHUKIN),2023-091AM,2026-07-16T06:44:20.439168,15.39136217,.00050376,97.5065,268.2455,337.1853,22.9167,0,U,57201,999,16922,.27455535E-3,.10569E-3,0
SITRO-AIS 12 (SMIRENNIY),2023-091AQ,2026-07-16T06:22:51.051360,15.39432146,.00046053,97.5078,268.7157,329.2677,30.8298,0,U,57204,999,16924,.2636808E-3,.10245E-3,0
SITRO-AIS 11 (SHEFFER),2023-091AU,2026-07-16T06:30:21.261888,15.39876031,.00044877,97.5077,268.9861,328.6089,31.4889,0,U,57208,999,16926,.27172588E-3,.10716E-3,0
SITRO-AIS 25,2024-039R,2026-07-16T06:02:26.449728,14.93646069,.01428631,95.3891,255.0649,225.7827,133.1596,0,U,59066,999,12906,.14045528E-3,.1778E-4,0
SITRO-AIS 26,2024-039S,2026-07-16T06:10:11.146080,14.93437892,.01431948,95.3892,254.9602,226.3847,132.5429,0,U,59067,999,12905,.12867673E-3,.1618E-4,0
SITRO-AIS 27,2024-039T,2026-07-16T06:51:59.573952,14.93861265,.01422763,95.3897,255.2655,224.7889,134.1782,0,U,59068,999,12908,.10289219E-3,.1298E-4,0
SITRO-AIS 28,2024-039U,2026-07-16T06:18:34.508160,14.93896391,.0142164,95.3895,255.2984,224.7223,134.2470,0,U,59071,999,12908,.12257551E-3,.1555E-4,0
GRBBETA,2024-128C,2026-07-16T05:18:36.521856,15.06812120,.00369142,61.9898,114.3862,140.8885,219.4888,0,U,60237,999,11064,.12144896E-3,.1623E-4,0
OOV-CUBE (TUBSAT-30),2024-128F,2026-07-16T04:45:53.038656,15.02875959,.00409801,61.9938,124.4033,140.2430,220.1678,0,U,60240,999,11047,.83085854E-4,.923E-5,0
ROBUSTA-3A (MEDITERRANEE),2024-128J,2026-07-16T07:15:56.536416,15.11995770,.00379731,61.9865,105.2566,133.9468,226.4772,0,U,60243,999,11082,.22080964E-3,.3645E-4,0
LASARSAT,2024-247Q,2026-07-16T02:15:08.659008,15.48082110,.00074765,44.9739,99.5612,171.6523,188.4493,0,U,62391,999,8779,.39100475E-3,.20669E-3,0
CROCUBE,2024-247T,2026-07-16T02:50:28.918464,15.50241694,.00076811,44.9721,96.2522,178.5471,181.5444,0,U,62394,999,8783,.43575645E-3,.24938E-3,0
FORESAIL-1 PRIME,2025-276DS,2026-07-16T04:22:38.496864,15.18942774,.00028084,97.4192,269.9251,42.1880,317.9571,0,U,66778,999,3480,.10760166E-3,.218E-4,0
KNACKSAT-2,1998-067XZ,2026-07-16T02:09:51.605568,15.62464930,.00079356,51.6274,148.8130,330.8548,29.2002,0,U,67683,999,2479,.38453065E-3,.34521E-3,0
